{"timestamp": "2025-03-02T19:01:21.608120", "data": [ {"OBJECT_NAME": "COSMOS 2547 (705K)", "OBJECT_ID": "2020-075A", "EPOCH": "2025-02-28T22:15:08.901504", "MEAN_MOTION": 2.1310289, "ECCENTRICITY": 0.0006276, "INCLINATION": 64.5987, "RA_OF_ASC_NODE": 208.2761, "ARG_OF_PERICENTER": 231.8212, "MEAN_ANOMALY": 128.0848, "EPHEMERIS_TYPE": 0, "CLASSIFICATION_TYPE": "U", "NORAD_CAT_ID": 46805, "ELEMENT_SET_NO": 999, "REV_AT_EPOCH": 3382, "BSTAR": 0, "MEAN_MOTION_DOT": 4.7e-07, "MEAN_MOTION_DDOT": 0, "line1": "1 46805U 20075A   25059.92718636  .00000047  00000+0  00000+0 0  9999", "line2": "2 46805  64.5987 208.2761 0006276 231.8212 128.0848  2.13102890 33823"}, {"OBJECT_NAME": "GPS BIII-4  (PRN 14)", "OBJECT_ID": "2020-078A", "EPOCH": "2025-03-01T16:12:40.123296", "MEAN_MOTION": 2.00558669, "ECCENTRICITY": 0.0054667, "INCLINATION": 54.0936, "RA_OF_ASC_NODE": 229.9473, "ARG_OF_PERICENTER": 198.681, "MEAN_ANOMALY": 203.5992, "EPHEMERIS_TYPE": 0, "CLASSIFICATION_TYPE": "U", "NORAD_CAT_ID": 46826, "ELEMENT_SET_NO": 999, "REV_AT_EPOCH": 3203, "BSTAR": 0, "MEAN_MOTION_DOT": 4.6e-07, "MEAN_MOTION_DDOT": 0, "line1": "1 46826U 20078A   25060.67546439  .00000046  00000+0  00000+0 0  9998", "line2": "2 46826  54.0936 229.9473 0054667 198.6810 203.5992  2.00558669 32031"}, {"OBJECT_NAME": "GPS BIII-5  (PRN 11)", "OBJECT_ID": "2021-054A", "EPOCH": "2025-03-02T13:17:20.873184", "MEAN_MOTION": 2.00569882, "ECCENTRICITY": 0.0018839, "INCLINATION": 55.3392, "RA_OF_ASC_NODE": 351.3904, "ARG_OF_PERICENTER": 230.9969, "MEAN_ANOMALY": 273.7619, "EPHEMERIS_TYPE": 0, "CLASSIFICATION_TYPE": "U", "NORAD_CAT_ID": 48859, "ELEMENT_SET_NO": 999, "REV_AT_EPOCH": 2729, "BSTAR": 0, "MEAN_MOTION_DOT": -8.4e-07, "MEAN_MOTION_DDOT": 0, "line1": "1 48859U 21054A   25061.55371381 -.00000084  00000+0  00000+0 0  9994", "line2": "2 48859  55.3392 351.3904 0018839 230.9969 273.7619  2.00569882 27290"}, {"OBJECT_NAME": "QZS-1R (QZSS/PRN 196)", "OBJECT_ID": "2021-096A", "EPOCH": "2025-03-02T09:22:21.749664", "MEAN_MOTION": 1.00289625, "ECCENTRICITY": 0.0748979, "INCLINATION": 36.478, "RA_OF_ASC_NODE": 86.6176, "ARG_OF_PERICENTER": 269.4544, "MEAN_ANOMALY": 80.139, "EPHEMERIS_TYPE": 0, "CLASSIFICATION_TYPE": "U", "NORAD_CAT_ID": 49336, "ELEMENT_SET_NO": 999, "REV_AT_EPOCH": 1227, "BSTAR": 0, "MEAN_MOTION_DOT": -2.28e-06, "MEAN_MOTION_DDOT": 0, "line1": "1 49336U 21096A   25061.39052951 -.00000228  00000+0  00000+0 0  9992", "line2": "2 49336  36.4780  86.6176 0748979 269.4544  80.1390  1.00289625 12273"}, {"OBJECT_NAME": "GSAT0223 (GALILEO 27)", "OBJECT_ID": "2021-116A", "EPOCH": "2025-03-01T12:10:55.181568", "MEAN_MOTION": 1.70474991, "ECCENTRICITY": 0.0002338, "INCLINATION": 57.2791, "RA_OF_ASC_NODE": 354.4336, "ARG_OF_PERICENTER": 276.9802, "MEAN_ANOMALY": 269.0345, "EPHEMERIS_TYPE": 0, "CLASSIFICATION_TYPE": "U", "NORAD_CAT_ID": 49809, "ELEMENT_SET_NO": 999, "REV_AT_EPOCH": 2012, "BSTAR": 0, "MEAN_MOTION_DOT": -8.5e-07, "MEAN_MOTION_DDOT": 0, "line1": "1 49809U 21116A   25060.50758312 -.00000085  00000+0  00000+0 0  9997", "line2": "2 49809  57.2791 354.4336 0002338 276.9802 269.0345  1.70474991 20127"}, {"OBJECT_NAME": "GSAT0224 (GALILEO 28)", "OBJECT_ID": "2021-116B", "EPOCH": "2025-02-26T21:55:11.000064", "MEAN_MOTION": 1.70475239, "ECCENTRICITY": 0.0002005, "INCLINATION": 57.2805, "RA_OF_ASC_NODE": 354.5024, "ARG_OF_PERICENTER": 291.9057, "MEAN_ANOMALY": 214.5004, "EPHEMERIS_TYPE": 0, "CLASSIFICATION_TYPE": "U", "NORAD_CAT_ID": 49810, "ELEMENT_SET_NO": 999, "REV_AT_EPOCH": 2009, "BSTAR": 0, "MEAN_MOTION_DOT": -8e-07, "MEAN_MOTION_DDOT": 0, "line1": "1 49810U 21116B   25057.91332176 -.00000080  00000+0  00000+0 0  9991", "line2": "2 49810  57.2805 354.5024 0002005 291.9057 214.5004  1.70475239 20099"}, {"OBJECT_NAME": "COSMOS 2557 (706K)", "OBJECT_ID": "2022-075A", "EPOCH": "2025-03-01T02:15:35.755776", "MEAN_MOTION": 2.13101691, "ECCENTRICITY": 0.0012372, "INCLINATION": 64.559, "RA_OF_ASC_NODE": 331.1084, "ARG_OF_PERICENTER": 285.4395, "MEAN_ANOMALY": 74.4714, "EPHEMERIS_TYPE": 0, "CLASSIFICATION_TYPE": "U", "NORAD_CAT_ID": 52984, "ELEMENT_SET_NO": 999, "REV_AT_EPOCH": 2063, "BSTAR": 0, "MEAN_MOTION_DOT": -4.6e-07, "MEAN_MOTION_DDOT": 0, "line1": "1 52984U 22075A   25060.09416384 -.00000046  00000+0  00000+0 0  9991", "line2": "2 52984  64.5590 331.1084 0012372 285.4395  74.4714  2.13101691 20632"}, {"OBJECT_NAME": "COSMOS 2559 (707K)", "OBJECT_ID": "2022-130A", "EPOCH": "2025-02-28T02:22:59.996064", "MEAN_MOTION": 2.13101119, "ECCENTRICITY": 0.0005767, "INCLINATION": 64.5317, "RA_OF_ASC_NODE": 331.2521, "ARG_OF_PERICENTER": 233.5512, "MEAN_ANOMALY": 126.441, "EPHEMERIS_TYPE": 0, "CLASSIFICATION_TYPE": "U", "NORAD_CAT_ID": 54031, "ELEMENT_SET_NO": 999, "REV_AT_EPOCH": 1858, "BSTAR": 0, "MEAN_MOTION_DOT": -4.4e-07, "MEAN_MOTION_DDOT": 0, "line1": "1 54031U 22130A   25059.09930551 -.00000044  00000+0  00000+0 0  9991", "line2": "2 54031  64.5317 331.2521 0005767 233.5512 126.4410  2.13101119 18583"}, {"OBJECT_NAME": "COSMOS 2564 (761)", "OBJECT_ID": "2022-161A", "EPOCH": "2025-02-28T18:11:26.500704", "MEAN_MOTION": 2.13101937, "ECCENTRICITY": 0.0008514, "INCLINATION": 64.7402, "RA_OF_ASC_NODE": 208.4326, "ARG_OF_PERICENTER": 207.95, "MEAN_ANOMALY": 151.967, "EPHEMERIS_TYPE": 0, "CLASSIFICATION_TYPE": "U", "NORAD_CAT_ID": 54377, "ELEMENT_SET_NO": 999, "REV_AT_EPOCH": 1754, "BSTAR": 0, "MEAN_MOTION_DOT": 4.7e-07, "MEAN_MOTION_DDOT": 0, "line1": "1 54377U 22161A   25059.75794561  .00000047  00000+0  00000+0 0  9992", "line2": "2 54377  64.7402 208.4326 0008514 207.9500 151.9670  2.13101937 17540"}, {"OBJECT_NAME": "GPS BIII-6  (PRN 28)", "OBJECT_ID": "2023-009A", "EPOCH": "2025-02-24T19:20:29.072256", "MEAN_MOTION": 2.00545614, "ECCENTRICITY": 9.71e-05, "INCLINATION": 55.0899, "RA_OF_ASC_NODE": 167.264, "ARG_OF_PERICENTER": 39.5557, "MEAN_ANOMALY": 308.9006, "EPHEMERIS_TYPE": 0, "CLASSIFICATION_TYPE": "U", "NORAD_CAT_ID": 55268, "ELEMENT_SET_NO": 999, "REV_AT_EPOCH": 1566, "BSTAR": 0, "MEAN_MOTION_DOT": 1e-08, "MEAN_MOTION_DDOT": 0, "line1": "1 55268U 23009A   25055.80589204  .00000001  00000+0  00000+0 0  9992", "line2": "2 55268  55.0899 167.2640 0000971  39.5557 308.9006  2.00545614 15662"}, {"OBJECT_NAME": "BEIDOU-3 G4 (C62)", "OBJECT_ID": "2023-066A", "EPOCH": "2025-03-02T10:28:38.544672", "MEAN_MOTION": 1.00270928, "ECCENTRICITY": 0.0001727, "INCLINATION": 1.4838, "RA_OF_ASC_NODE": 290.1671, "ARG_OF_PERICENTER": 232.2783, "MEAN_ANOMALY": 315.2107, "EPHEMERIS_TYPE": 0, "CLASSIFICATION_TYPE": "U", "NORAD_CAT_ID": 56564, "ELEMENT_SET_NO": 999, "REV_AT_EPOCH": 667, "BSTAR": 0, "MEAN_MOTION_DOT": -1.15e-06, "MEAN_MOTION_DDOT": 0, "line1": "1 56564U 23066A   25061.43655723 -.00000115  00000+0  00000+0 0  9998", "line2": "2 56564   1.4838 290.1671 0001727 232.2783 315.2107  1.00270928  6679"}, {"OBJECT_NAME": "NVS-01 (IRNSS-1J)", "OBJECT_ID": "2023-076A", "EPOCH": "2025-03-01T19:32:38.770368", "MEAN_MOTION": 1.00274661, "ECCENTRICITY": 0.0007691, "INCLINATION": 3.3387, "RA_OF_ASC_NODE": 260.0336, "ARG_OF_PERICENTER": 27.488, "MEAN_ANOMALY": 294.9758, "EPHEMERIS_TYPE": 0, "CLASSIFICATION_TYPE": "U", "NORAD_CAT_ID": 56759, "ELEMENT_SET_NO": 999, "REV_AT_EPOCH": 637, "BSTAR": 0, "MEAN_MOTION_DOT": -3.42e-06, "MEAN_MOTION_DDOT": 0, "line1": "1 56759U 23076A   25060.81433762 -.00000342  00000+0  00000+0 0  9995", "line2": "2 56759   3.3387 260.0336 0007691  27.4880 294.9758  1.00274661  6377"}, {"OBJECT_NAME": "COSMOS 2569 (703K)", "OBJECT_ID": "2023-114A", "EPOCH": "2025-03-01T17:05:04.908768", "MEAN_MOTION": 2.13104025, "ECCENTRICITY": 0.001274, "INCLINATION": 65.039, "RA_OF_ASC_NODE": 88.5855, "ARG_OF_PERICENTER": 292.1068, "MEAN_ANOMALY": 67.8264, "EPHEMERIS_TYPE": 0, "CLASSIFICATION_TYPE": "U", "NORAD_CAT_ID": 57517, "ELEMENT_SET_NO": 999, "REV_AT_EPOCH": 1219, "BSTAR": 0, "MEAN_MOTION_DOT": 4.4e-07, "MEAN_MOTION_DDOT": 0, "line1": "1 57517U 23114A   25060.71186237  .00000044  00000+0  00000+0 0  9990", "line2": "2 57517  65.0390  88.5855 0012740 292.1068  67.8264  2.13104025 12195"}, {"OBJECT_NAME": "BEIDOU-3 M28 (C50)", "OBJECT_ID": "2023-207A", "EPOCH": "2025-03-02T07:33:17.328096", "MEAN_MOTION": 1.86231924, "ECCENTRICITY": 0.0004847, "INCLINATION": 55.3304, "RA_OF_ASC_NODE": 78.2744, "ARG_OF_PERICENTER": 290.5367, "MEAN_ANOMALY": 69.4616, "EPHEMERIS_TYPE": 0, "CLASSIFICATION_TYPE": "U", "NORAD_CAT_ID": 58654, "ELEMENT_SET_NO": 999, "REV_AT_EPOCH": 805, "BSTAR": 0, "MEAN_MOTION_DOT": 7e-08, "MEAN_MOTION_DDOT": 0, "line1": "1 58654U 23207A   25061.31478389  .00000007  00000+0  00000+0 0  9994", "line2": "2 58654  55.3304  78.2744 0004847 290.5367  69.4616  1.86231924  8058"}, {"OBJECT_NAME": "BEIDOU-3 M26 (C48)", "OBJECT_ID": "2023-207B", "EPOCH": "2025-03-01T13:51:31.279968", "MEAN_MOTION": 1.86231395, "ECCENTRICITY": 0.000563, "INCLINATION": 55.3317, "RA_OF_ASC_NODE": 78.2854, "ARG_OF_PERICENTER": 276.4313, "MEAN_ANOMALY": 83.5597, "EPHEMERIS_TYPE": 0, "CLASSIFICATION_TYPE": "U", "NORAD_CAT_ID": 58655, "ELEMENT_SET_NO": 999, "REV_AT_EPOCH": 802, "BSTAR": 0, "MEAN_MOTION_DOT": 1.4e-07, "MEAN_MOTION_DDOT": 0, "line1": "1 58655U 23207B   25060.57744537  .00000014  00000+0  00000+0 0  9991", "line2": "2 58655  55.3317  78.2854 0005630 276.4313  83.5597  1.86231395  8024"}, {"OBJECT_NAME": "GSAT0225 (GALILEO 29)", "OBJECT_ID": "2024-079A", "EPOCH": "2025-03-02T04:52:38.679744", "MEAN_MOTION": 1.70474993, "ECCENTRICITY": 0.0002915, "INCLINATION": 54.8327, "RA_OF_ASC_NODE": 114.2841, "ARG_OF_PERICENTER": 232.6017, "MEAN_ANOMALY": 124.54, "EPHEMERIS_TYPE": 0, "CLASSIFICATION_TYPE": "U", "NORAD_CAT_ID": 59598, "ELEMENT_SET_NO": 999, "REV_AT_EPOCH": 525, "BSTAR": 0, "MEAN_MOTION_DOT": 2.4e-07, "MEAN_MOTION_DDOT": 0, "line1": "1 59598U 24079A   25061.20322546  .00000024  00000+0  00000+0 0  9990", "line2": "2 59598  54.8327 114.2841 0002915 232.6017 124.5400  1.70474993  5258"}]}